GLOBALSTAR M057         
1 25943U 99058A   25265.71501701 -.00000091  00000+0  21252-4 0  9992
2 25943  51.9982  71.4173 0002279 195.1514 164.9267 12.24827011178883
GLOBALSTAR M059         
1 25944U 99058B   25265.82354251  .00000016  00000+0  12626-2 0  9990
2 25944  52.0022 303.0374 0000599 133.4184  37.3399 11.99988097585760
GLOBALSTAR M056         
1 25945U 99058C   25265.41814095 -.00000081  00000+0  74355-4 0  9995
2 25945  51.9970 303.5997 0000917  31.0305  70.8287 12.04779040174348
GLOBALSTAR M031         
1 25946U 99058D   25265.50982554 -.00000159  00000+0 -69486-3 0  9997
2 25946  51.9956 189.8475 0001889  27.6470 143.1120 12.16040075176380
GLOBALSTAR M039         
1 25961U 99062A   25265.87308340 -.00000066  00000+0  21207-3 0  9999
2 25961  51.9867 331.1844 0002648 194.0182 166.0612 12.62332396192551
GLOBALSTAR M034         
1 25962U 99062B   25265.75197222 -.00000048  00000+0  51926-3 0  9993
2 25962  51.9852 117.7744 0013346 224.0697 215.1500 11.79448699149909
GLOBALSTAR M029         
1 25963U 99062C   25265.50636803 -.00000075  00000+0  13596-3 0  9991
2 25963  51.9791 191.8443 0002509 324.2615 207.4210 11.99901070180808
GLOBALSTAR M061         
1 25964U 99062D   25265.82995285 -.00000042  00000+0  62488-3 0  9997
2 25964  51.9799 302.9064 0006130 147.7108  23.6777 11.76776900132675
